STARLINK-2741           
1 48684U 21044AY  24226.92663316  .00014686  00000+0  10035-2 0  9998
2 48684  53.0530 138.2081 0001697 103.6347 256.4831 15.06373050177866
STARLINK-2751           
1 48685U 21044AZ  24227.00722651  .00025286  00000+0  17114-2 0  9990
2 48685  53.0536 122.5336 0001343  83.4933 276.6209 15.06377500178932
STARLINK-2629           
1 48686U 21044BA  24226.93491861  .00040620  00000+0  27325-2 0  9992
2 48686  53.0534 128.0955 0001473  95.7532 264.3625 15.06369091178004
STARLINK-2627           
1 48687U 21044BB  24227.10905003  .00002307  00000+0  17383-3 0  9995
2 48687  53.0532 117.0306 0001681  60.3196 299.7960 15.06379815179017
STARLINK-2742           
1 48688U 21044BC  24227.17907804  .00009826  00000+0  67788-3 0  9991
2 48688  53.0538 116.7200 0001308  81.3292 278.7845 15.06385866179022
STARLINK-2617           
1 48689U 21044BD  24227.11780696  .00031312  00000+0  21153-2 0  9994
2 48689  53.0542 121.9640 0001696  50.4883 309.6255 15.06335843178946
STARLINK-2740           
1 48690U 21044BE  24227.12425267  .00045404  00000+0  30526-2 0  9998
2 48690  53.0525 131.9661 0001404  95.0076 265.1073 15.06337513178860
STARLINK-2750           
1 48691U 21044BF  24227.03072091  .00010291  00000+0  70936-3 0  9998
2 48691  53.0546 127.3882 0001849 108.0139 252.1052 15.06368767178864
STARLINK-2752           
1 48692U 21044BG  24227.21503892  .00025940  00000+0  17547-2 0  9992
2 48692  53.0546 126.6791 0001667  92.0468 268.0712 15.06383631178890
STARLINK-2618           
1 48693U 21044BH  24227.02378297 -.00002141  00000+0 -12496-3 0  9990
2 48693  53.0500 132.4151 0001296  86.3643 273.7494 15.06371700178798
STARLINK-2748           
1 48694U 21044BJ  24227.19103348  .00058167  00000+0  38922-2 0  9990
2 48694  53.0532 136.6574 0001506  79.2712 280.8446 15.06396306178741
STARLINK-2616           
1 48695U 21044BK  24226.94870965  .00028273  00000+0  19115-2 0  9997
2 48695  53.0528 137.8035 0001165  80.6636 279.4485 15.06358536177877
STARLINK-2753           
1 48696U 21044BL  24227.20442089  .00053320  00000+0  35722-2 0  9993
2 48696  53.0550 141.6570 0001605  79.9438 280.1732 15.06392604178688
ONEWEB-0211             
1 48767U 21045A   24226.90035256  .00000053  00000+0  10739-3 0  9990
2 48767  87.9033  32.9517 0001661  91.5029 268.6292 13.15547228156028
ONEWEB-0223             
1 48768U 21045B   24227.22675284 -.00001931  00000+0 -51656-2 0  9998
2 48768  87.9041  32.8958 0001478 119.8963 240.2314 13.15547419157195
ONEWEB-0230             
1 48769U 21045C   24226.89401445  .00000008  00000+0 -12732-4 0  9994
2 48769  87.9037  33.0320 0001763  87.8553 272.2780 13.15547377156276
ONEWEB-0237             
1 48770U 21045D   24227.18715855 -.00000058  00000+0 -18718-3 0  9997
2 48770  87.9042  32.9083 0001368  90.7835 269.3452 13.15548467157168
ONEWEB-0235             
1 48771U 21045E   24226.93362732  .00000061  00000+0  12885-3 0  9993
2 48771  87.9034  32.9642 0001046  83.9524 276.1725 13.15547307155993
ONEWEB-0242             
1 48772U 21045F   24227.15546313  .00000196  00000+0  48709-3 0  9991
2 48772  87.9035  32.9080 0001584  87.2120 272.9192 13.15547418157196
ONEWEB-0241             
1 48773U 21045G   24226.91461089  .00000200  00000+0  49766-3 0  9991
2 48773  87.9043  33.0083 0001466 102.9415 257.1879 13.15546968155949
ONEWEB-0243             
1 48774U 21045H   24227.17446620 -.00000016  00000+0 -77439-4 0  9991
2 48774  87.9044  32.9159 0001222  83.5073 276.6196 13.15546077157139
ONEWEB-0222             
1 48775U 21045J   24227.15784005  .00000187  00000+0  46257-3 0  9992
2 48775  87.9034  32.9168 0001489  96.6919 263.4381 13.15547292157161
ONEWEB-0244             
1 48776U 21045K   24227.18398239 -.00000067  00000+0 -21166-3 0  9997
2 48776  87.9031  32.8932 0001679  86.0734 274.0588 13.15549341157733
ONEWEB-0247             
1 48777U 21045L   24227.02869294 -.00000087  00000+0 -26398-3 0  9999
2 48777  87.9039  32.9693 0000810  67.3108 292.8108 13.15548549157162
ONEWEB-0245             
1 48778U 21045M   24226.94788627 -.00000058  00000+0 -18854-3 0  9996
2 48778  87.9035  32.9714 0001649  99.5239 260.6077 13.15546995155996
ONEWEB-0229             
1 48779U 21045N   24226.94313800  .00000002  00000+0 -30052-4 0  9997
2 48779  87.9035  32.9671 0001664  88.2257 271.9064 13.15547729156023
ONEWEB-0228             
1 48780U 21045P   24226.89954712  .00000059  00000+0  12162-3 0  9998
2 48780  87.9032  32.9575 0001685  91.2002 268.9321 13.15545486155939
ONEWEB-0232             
1 48781U 21045Q   24227.17925375  .00001341  00000+0  35265-2 0  9997
2 48781  87.9052  32.9120 0000999  92.2949 267.8296 13.15549046157416
ONEWEB-0231             
1 48782U 21045R   24226.92887721  .00000171  00000+0  41908-3 0  9994
2 48782  87.9046  33.0013 0001434  90.2001 269.9294 13.15547454155954
ONEWEB-0234             
1 48783U 21045S   24227.02474437 -.00000125  00000+0 -36512-3 0  9999
2 48783  87.9036  32.9366 0002814 113.5726 246.5700 13.15547039157234
