OBJECT_NAME,OBJECT_ID,EPOCH,MEAN_MOTION,ECCENTRICITY,INCLINATION,RA_OF_ASC_NODE,ARG_OF_PERICENTER,MEAN_ANOMALY,EPHEMERIS_TYPE,CLASSIFICATION_TYPE,NORAD_CAT_ID,ELEMENT_SET_NO,REV_AT_EPOCH,BSTAR,MEAN_MOTION_DOT,MEAN_MOTION_DDOT
STARLINK-2741,2021-044AY,2024-08-13T22:14:21.105024,15.06373050,.0001697,53.0530,138.2081,103.6347,256.4831,0,U,48684,999,17786,.10035E-2,.14686E-3,0
STARLINK-2751,2021-044AZ,2024-08-14T00:10:24.370464,15.06377500,.0001343,53.0536,122.5336,83.4933,276.6209,0,U,48685,999,17893,.17114E-2,.25286E-3,0
STARLINK-2629,2021-044BA,2024-08-13T22:26:16.967904,15.06369091,.0001473,53.0534,128.0955,95.7532,264.3625,0,U,48686,999,17800,.27325E-2,.4062E-3,0
STARLINK-2627,2021-044BB,2024-08-14T02:37:01.922592,15.06379815,.0001681,53.0532,117.0306,60.3196,299.7960,0,U,48687,999,17901,.17383E-3,.2307E-4,0
STARLINK-2742,2021-044BC,2024-08-14T04:17:52.342656,15.06385866,.0001308,53.0538,116.7200,81.3292,278.7845,0,U,48688,999,17902,.67788E-3,.9826E-4,0
STARLINK-2617,2021-044BD,2024-08-14T02:49:38.521344,15.06335843,.0001696,53.0542,121.9640,50.4883,309.6255,0,U,48689,999,17894,.21153E-2,.31312E-3,0
STARLINK-2740,2021-044BE,2024-08-14T02:58:55.430688,15.06337513,.0001404,53.0525,131.9661,95.0076,265.1073,0,U,48690,999,17886,.30526E-2,.45404E-3,0
STARLINK-2750,2021-044BF,2024-08-14T00:44:14.286624,15.06368767,.0001849,53.0546,127.3882,108.0139,252.1052,0,U,48691,999,17886,.70936E-3,.10291E-3,0
STARLINK-2752,2021-044BG,2024-08-14T05:09:39.362688,15.06383631,.0001667,53.0546,126.6791,92.0468,268.0712,0,U,48692,999,17889,.17547E-2,.2594E-3,0
STARLINK-2618,2021-044BH,2024-08-14T00:34:14.848608,15.06371700,.0001296,53.0500,132.4151,86.3643,273.7494,0,U,48693,999,17879,-.12496E-3,-.2141E-4,0
STARLINK-2748,2021-044BJ,2024-08-14T04:35:05.292672,15.06396306,.0001506,53.0532,136.6574,79.2712,280.8446,0,U,48694,999,17874,.38922E-2,.58167E-3,0
STARLINK-2616,2021-044BK,2024-08-13T22:46:08.513760,15.06358536,.0001165,53.0528,137.8035,80.6636,279.4485,0,U,48695,999,17787,.19115E-2,.28273E-3,0
STARLINK-2753,2021-044BL,2024-08-14T04:54:21.964896,15.06392604,.0001605,53.0550,141.6570,79.9438,280.1732,0,U,48696,999,17868,.35722E-2,.5332E-3,0
ONEWEB-0211,2021-045A,2024-08-13T21:36:30.461184,13.15547228,.0001661,87.9033,32.9517,91.5029,268.6292,0,U,48767,999,15602,.10739E-3,.53E-6,0
ONEWEB-0223,2021-045B,2024-08-14T05:26:31.445376,13.15547419,.0001478,87.9041,32.8958,119.8963,240.2314,0,U,48768,999,15719,-.51656E-2,-.1931E-4,0
ONEWEB-0230,2021-045C,2024-08-13T21:27:22.848480,13.15547377,.0001763,87.9037,33.0320,87.8553,272.2780,0,U,48769,999,15627,-.12732E-4,.8E-7,0
ONEWEB-0237,2021-045D,2024-08-14T04:29:30.498720,13.15548467,.0001368,87.9042,32.9083,90.7835,269.3452,0,U,48770,999,15716,-.18718E-3,-.58E-6,0
ONEWEB-0235,2021-045E,2024-08-13T22:24:25.400448,13.15547307,.0001046,87.9034,32.9642,83.9524,276.1725,0,U,48771,999,15599,.12885E-3,.61E-6,0
ONEWEB-0242,2021-045F,2024-08-14T03:43:52.014432,13.15547418,.0001584,87.9035,32.9080,87.2120,272.9192,0,U,48772,999,15719,.48709E-3,.196E-5,0
ONEWEB-0241,2021-045G,2024-08-13T21:57:02.380896,13.15546968,.0001466,87.9043,33.0083,102.9415,257.1879,0,U,48773,999,15594,.49766E-3,.2E-5,0
ONEWEB-0243,2021-045H,2024-08-14T04:11:13.879680,13.15546077,.0001222,87.9044,32.9159,83.5073,276.6196,0,U,48774,999,15713,-.77439E-4,-.16E-6,0
ONEWEB-0222,2021-045J,2024-08-14T03:47:17.380320,13.15547292,.0001489,87.9034,32.9168,96.6919,263.4381,0,U,48775,999,15716,.46257E-3,.187E-5,0
ONEWEB-0244,2021-045K,2024-08-14T04:24:56.078496,13.15549341,.0001679,87.9031,32.8932,86.0734,274.0588,0,U,48776,999,15773,-.21166E-3,-.67E-6,0
ONEWEB-0247,2021-045L,2024-08-14T00:41:19.070016,13.15548549,.000081,87.9039,32.9693,67.3108,292.8108,0,U,48777,999,15716,-.26398E-3,-.87E-6,0
ONEWEB-0245,2021-045M,2024-08-13T22:44:57.373728,13.15546995,.0001649,87.9035,32.9714,99.5239,260.6077,0,U,48778,999,15599,-.18854E-3,-.58E-6,0
ONEWEB-0229,2021-045N,2024-08-13T22:38:07.123200,13.15547729,.0001664,87.9035,32.9671,88.2257,271.9064,0,U,48779,999,15602,-.30052E-4,.2E-7,0
ONEWEB-0228,2021-045P,2024-08-13T21:35:20.871168,13.15545486,.0001685,87.9032,32.9575,91.2002,268.9321,0,U,48780,999,15593,.12162E-3,.59E-6,0
ONEWEB-0232,2021-045Q,2024-08-14T04:18:07.524000,13.15549046,.0000999,87.9052,32.9120,92.2949,267.8296,0,U,48781,999,15741,.35265E-2,.1341E-4,0
ONEWEB-0231,2021-045R,2024-08-13T22:17:34.990944,13.15547454,.0001434,87.9046,33.0013,90.2001,269.9294,0,U,48782,999,15595,.41908E-3,.171E-5,0
ONEWEB-0234,2021-045S,2024-08-14T00:35:37.913568,13.15547039,.0002814,87.9036,32.9366,113.5726,246.5700,0,U,48783,999,15723,-.36512E-3,-.125E-5,0
